IRIDIUM 144             
1 43249U 18030A   24145.38175038  .00000658  00000+0  22805-3 0  9993
2 43249  86.3983 245.4042 0002019  99.3145 260.8279 14.34213837322114
IRIDIUM 149             
1 43250U 18030B   24144.82994517  .00000682  00000+0  23659-3 0  9999
2 43250  86.3982 245.6102 0002239  98.1320 262.0130 14.34215215322033
IRIDIUM 157             
1 43251U 18030C   24144.77920752  .00000667  00000+0  23123-3 0  9993
2 43251  86.3983 245.6677 0002488  90.5613 269.5868 14.34217302322005
IRIDIUM 140             
1 43252U 18030D   24144.72846350  .00000508  00000+0  17437-3 0  9995
2 43252  86.3980 245.7035 0001879  99.8169 260.3239 14.34222391322053
IRIDIUM 145             
1 43253U 18030E   24144.78555015  .00000510  00000+0  17495-3 0  9994
2 43253  86.3983 245.6534 0002282 110.7485 249.3956 14.34216095321992
IRIDIUM 146             
1 43254U 18030F   24144.76651565  .00000674  00000+0  23349-3 0  9996
2 43254  86.3982 245.6761 0002124  98.6586 261.4850 14.34213601322006
IRIDIUM 148             
1 43255U 18030G   24145.36272534  .00000282  00000+0  93759-4 0  9997
2 43255  86.3983 245.4582 0002388  96.8836 263.2631 14.34213299322131
IRIDIUM 142             
1 43256U 18030H   24144.84263464  .00000708  00000+0  24573-3 0  9992
2 43256  86.3980 245.5924 0002154 100.6595 259.4843 14.34214812322018
